[{"OBJECT_NAME":"NEXSAT-1","OBJECT_ID":"2024-024E","EPOCH":"2026-03-09T22:47:24.778176","MEAN_MOTION":15.32166372,"ECCENTRICITY":0.00099795,"INCLINATION":97.3124,"RA_OF_ASC_NODE":144.1918,"ARG_OF_PERICENTER":108.5709,"MEAN_ANOMALY":251.6617,"EPHEMERIS_TYPE":0,"CLASSIFICATION_TYPE":"U","NORAD_CAT_ID":58921,"ELEMENT_SET_NO":999,"REV_AT_EPOCH":11669,"BSTAR":0.00031433612,"MEAN_MOTION_DOT":9.702e-5,"MEAN_MOTION_DDOT":0},{"OBJECT_NAME":"STARLINK-35440","OBJECT_ID":"2025-253AC","EPOCH":"2026-03-09T10:19:59.264256","MEAN_MOTION":15.2763173,"ECCENTRICITY":0.00023213,"INCLINATION":42.9994,"RA_OF_ASC_NODE":214.0675,"ARG_OF_PERICENTER":285.2507,"MEAN_ANOMALY":74.8088,"EPHEMERIS_TYPE":0,"CLASSIFICATION_TYPE":"U","NORAD_CAT_ID":66345,"ELEMENT_SET_NO":999,"REV_AT_EPOCH":2020,"BSTAR":0.0011925881,"MEAN_MOTION_DOT":0.00032754,"MEAN_MOTION_DDOT":0}]
